{
  "type": "FeatureCollection",
  "generator": "overpass-ide",
  "copyright": "The data included in this document is from www.openstreetmap.org. The data is made available under ODbL.",
  "timestamp": "2020-05-16T09:57:03Z",
  "features": [
    {
      "type": "Feature",
      "properties": {
        "@id": "node/599322572",
        "name": "Vittorio",
        "shop": "hairdresser"
      },
      "geometry": {
        "type": "Point",
        "coordinates": [
          11.3626573,
          44.5739169
        ]
      },
      "id": "node/599322572"
    },
    {
      "type": "Feature",
      "properties": {
        "@id": "node/877057069",
        "shop": "hairdresser"
      },
      "geometry": {
        "type": "Point",
        "coordinates": [
          11.1918319,
          44.5468306
        ]
      },
      "id": "node/877057069"
    },
    {
      "type": "Feature",
      "properties": {
        "@id": "node/888485823",
        "name": "Monser Parrucchieri",
        "shop": "hairdresser"
      },
      "geometry": {
        "type": "Point",
        "coordinates": [
          11.1849714,
          44.5487311
        ]
      },
      "id": "node/888485823"
    },
    {
      "type": "Feature",
      "properties": {
        "@id": "node/1567952557",
        "shop": "hairdresser"
      },
      "geometry": {
        "type": "Point",
        "coordinates": [
          11.2766075,
          44.5191541
        ]
      },
      "id": "node/1567952557"
    },
    {
      "type": "Feature",
      "properties": {
        "@id": "node/1576821096",
        "name": "King 57 Due",
        "shop": "hairdresser"
      },
      "geometry": {
        "type": "Point",
        "coordinates": [
          11.2650633,
          44.5204765
        ]
      },
      "id": "node/1576821096"
    },
    {
      "type": "Feature",
      "properties": {
        "@id": "node/2504169541",
        "name": "mister green",
        "name:it": "Mister Green",
        "shop": "hairdresser",
        "wheelchair": "yes"
      },
      "geometry": {
        "type": "Point",
        "coordinates": [
          11.3175071,
          44.4889972
        ]
      },
      "id": "node/2504169541"
    },
    {
      "type": "Feature",
      "properties": {
        "@id": "node/2961552944",
        "addr:city": "Lippo",
        "addr:postcode": "40012",
        "name": "Giochi Di Luce Di Lo Vercio Katia",
        "shop": "hairdresser"
      },
      "geometry": {
        "type": "Point",
        "coordinates": [
          11.3022839,
          44.5366462
        ]
      },
      "id": "node/2961552944"
    },
    {
      "type": "Feature",
      "properties": {
        "@id": "node/3184723321",
        "shop": "hairdresser"
      },
      "geometry": {
        "type": "Point",
        "coordinates": [
          11.3593781,
          44.4998662
        ]
      },
      "id": "node/3184723321"
    },
    {
      "type": "Feature",
      "properties": {
        "@id": "node/3184723331",
        "addr:city": "Bologna",
        "addr:housenumber": "22c",
        "addr:postcode": "40127",
        "addr:street": "Via San Donato",
        "name": "parrucchieri",
        "shop": "hairdresser"
      },
      "geometry": {
        "type": "Point",
        "coordinates": [
          11.3581316,
          44.4992457
        ]
      },
      "id": "node/3184723331"
    },
    {
      "type": "Feature",
      "properties": {
        "@id": "node/3184723334",
        "addr:city": "Bologna",
        "addr:housenumber": "5b",
        "addr:postcode": "40127",
        "addr:street": "Via San Donato",
        "name": "Casa Blanca",
        "shop": "hairdresser"
      },
      "geometry": {
        "type": "Point",
        "coordinates": [
          11.3576112,
          44.4988382
        ]
      },
      "id": "node/3184723334"
    },
    {
      "type": "Feature",
      "properties": {
        "@id": "node/3190973937",
        "addr:city": "Bologna",
        "addr:housenumber": "34a",
        "addr:postcode": "40138",
        "addr:street": "Via Libia",
        "name": "parrucchieri",
        "shop": "hairdresser"
      },
      "geometry": {
        "type": "Point",
        "coordinates": [
          11.3655008,
          44.4962607
        ]
      },
      "id": "node/3190973937"
    },
    {
      "type": "Feature",
      "properties": {
        "@id": "node/3190973948",
        "shop": "hairdresser"
      },
      "geometry": {
        "type": "Point",
        "coordinates": [
          11.3626173,
          44.4972916
        ]
      },
      "id": "node/3190973948"
    },
    {
      "type": "Feature",
      "properties": {
        "@id": "node/3249756887",
        "addr:city": "Bologna",
        "addr:housenumber": "111",
        "addr:postcode": "40138",
        "addr:street": "Via Giuseppe Bentivogli",
        "name": "Guisy",
        "shop": "hairdresser"
      },
      "geometry": {
        "type": "Point",
        "coordinates": [
          11.3642077,
          44.4980556
        ]
      },
      "id": "node/3249756887"
    },
    {
      "type": "Feature",
      "properties": {
        "@id": "node/3251838139",
        "addr:city": "Bologna",
        "addr:housenumber": "29",
        "addr:postcode": "40126",
        "addr:street": "Via Antonio Zanolini",
        "name": "Crazy Hair",
        "opening_hours": "Mo-Sa 09:00-19:00",
        "shop": "hairdresser"
      },
      "geometry": {
        "type": "Point",
        "coordinates": [
          11.358769,
          44.4953324
        ]
      },
      "id": "node/3251838139"
    },
    {
      "type": "Feature",
      "properties": {
        "@id": "node/3415523013",
        "addr:city": "Bologna",
        "addr:housenumber": "7d",
        "addr:postcode": "40126",
        "addr:street": "Via Zamboni",
        "name": "Jean Louis David",
        "shop": "hairdresser"
      },
      "geometry": {
        "type": "Point",
        "coordinates": [
          11.3474764,
          44.4949673
        ]
      },
      "id": "node/3415523013"
    },
    {
      "type": "Feature",
      "properties": {
        "@id": "node/3415523017",
        "addr:city": "Bologna",
        "addr:housenumber": "4c",
        "addr:postcode": "40126",
        "addr:street": "Via Zamboni",
        "name": "Fabio",
        "shop": "hairdresser"
      },
      "geometry": {
        "type": "Point",
        "coordinates": [
          11.3469591,
          44.4947927
        ]
      },
      "id": "node/3415523017"
    },
    {
      "type": "Feature",
      "properties": {
        "@id": "node/3606709951",
        "addr:city": "Bologna",
        "addr:housenumber": "77",
        "addr:postcode": "40125",
        "addr:street": "Via San Vitale",
        "name": "Timmy Flash",
        "shop": "hairdresser"
      },
      "geometry": {
        "type": "Point",
        "coordinates": [
          11.3556799,
          44.4939734
        ]
      },
      "id": "node/3606709951"
    },
    {
      "type": "Feature",
      "properties": {
        "@id": "node/3606709957",
        "addr:city": "Bologna",
        "addr:housenumber": "74",
        "addr:postcode": "40125",
        "addr:street": "Via San Vitale",
        "name": "Dhaka",
        "shop": "hairdresser"
      },
      "geometry": {
        "type": "Point",
        "coordinates": [
          11.3531432,
          44.4941848
        ]
      },
      "id": "node/3606709957"
    },
    {
      "type": "Feature",
      "properties": {
        "@id": "node/3606710683",
        "addr:city": "Bologna",
        "addr:housenumber": "17a",
        "addr:postcode": "40125",
        "addr:street": "Via San Vitale",
        "name": "Tratti d'Autore",
        "shop": "hairdresser"
      },
      "geometry": {
        "type": "Point",
        "coordinates": [
          11.3494498,
          44.4943714
        ]
      },
      "id": "node/3606710683"
    },
    {
      "type": "Feature",
      "properties": {
        "@id": "node/3606867944",
        "addr:city": "Bologna",
        "addr:housenumber": "32b",
        "addr:postcode": "40126",
        "addr:street": "Via Giuseppe Petroni",
        "name": "Pak Hair Saloon",
        "shop": "hairdresser"
      },
      "geometry": {
        "type": "Point",
        "coordinates": [
          11.3508151,
          44.4956274
        ]
      },
      "id": "node/3606867944"
    },
    {
      "type": "Feature",
      "properties": {
        "@id": "node/3612440679",
        "addr:city": "Bologna",
        "addr:housenumber": "158/3",
        "addr:postcode": "40127",
        "addr:street": "Via San Donato",
        "name": "Lorena",
        "shop": "hairdresser"
      },
      "geometry": {
        "type": "Point",
        "coordinates": [
          11.3777092,
          44.5085062
        ]
      },
      "id": "node/3612440679"
    },
    {
      "type": "Feature",
      "properties": {
        "@id": "node/3614719025",
        "shop": "hairdresser"
      },
      "geometry": {
        "type": "Point",
        "coordinates": [
          11.3736117,
          44.5062204
        ]
      },
      "id": "node/3614719025"
    },
    {
      "type": "Feature",
      "properties": {
        "@id": "node/3614838853",
        "addr:city": "Bologna",
        "addr:housenumber": "48a",
        "addr:postcode": "40138",
        "addr:street": "Via Giuseppe Bentivogli",
        "name": "Ultraviolet",
        "shop": "hairdresser"
      },
      "geometry": {
        "type": "Point",
        "coordinates": [
          11.3640042,
          44.4970049
        ]
      },
      "id": "node/3614838853"
    },
    {
      "type": "Feature",
      "properties": {
        "@id": "node/3614838856",
        "addr:city": "Bologna",
        "addr:housenumber": "81",
        "addr:postcode": "40138",
        "addr:street": "Via Giuseppe Bentivogli",
        "name": "Imagine Style",
        "shop": "hairdresser"
      },
      "geometry": {
        "type": "Point",
        "coordinates": [
          11.3644896,
          44.4958971
        ]
      },
      "id": "node/3614838856"
    },
    {
      "type": "Feature",
      "properties": {
        "@id": "node/3615364702",
        "addr:city": "Bologna",
        "addr:housenumber": "108",
        "addr:postcode": "40138",
        "addr:street": "Via Giuseppe Massarenti",
        "name": "La Donna Rossa",
        "shop": "hairdresser"
      },
      "geometry": {
        "type": "Point",
        "coordinates": [
          11.3652961,
          44.4924502
        ]
      },
      "id": "node/3615364702"
    },
    {
      "type": "Feature",
      "properties": {
        "@id": "node/3625394234",
        "addr:city": "Bologna",
        "addr:housenumber": "2b",
        "addr:postcode": "40126",
        "addr:street": "Via Faustino Malaguti",
        "name": "parrucchieri",
        "shop": "hairdresser"
      },
      "geometry": {
        "type": "Point",
        "coordinates": [
          11.3570304,
          44.4982657
        ]
      },
      "id": "node/3625394234"
    },
    {
      "type": "Feature",
      "properties": {
        "@id": "node/3636954971",
        "addr:city": "Bologna",
        "addr:housenumber": "13d",
        "addr:postcode": "40126",
        "addr:street": "Via Irnerio",
        "name": "KÃ©rastase Paris",
        "shop": "hairdresser"
      },
      "geometry": {
        "type": "Point",
        "coordinates": [
          11.3476159,
          44.5002591
        ]
      },
      "id": "node/3636954971"
    },
    {
      "type": "Feature",
      "properties": {
        "@id": "node/3636954974",
        "addr:city": "Bologna",
        "addr:housenumber": "26b",
        "addr:postcode": "40126",
        "addr:street": "Via Alessandrini",
        "name": "Fashion Mania",
        "shop": "hairdresser"
      },
      "geometry": {
        "type": "Point",
        "coordinates": [
          11.3471169,
          44.50035
        ]
      },
      "id": "node/3636954974"
    },
    {
      "type": "Feature",
      "properties": {
        "@id": "node/3636980674",
        "addr:city": "Bologna",
        "addr:housenumber": "10b",
        "addr:postcode": "40126",
        "addr:street": "Via Irnerio",
        "name": "Miami L&M",
        "shop": "hairdresser"
      },
      "geometry": {
        "type": "Point",
        "coordinates": [
          11.34804,
          44.5003986
        ]
      },
      "id": "node/3636980674"
    },
    {
      "type": "Feature",
      "properties": {
        "@id": "node/3637073740",
        "addr:city": "Bologna",
        "addr:housenumber": "12/5b",
        "addr:postcode": "40126",
        "addr:street": "Via Irnerio",
        "name": "Maria Teresa",
        "shop": "hairdresser"
      },
      "geometry": {
        "type": "Point",
        "coordinates": [
          11.3487091,
          44.5002284
        ]
      },
      "id": "node/3637073740"
    },
    {
      "type": "Feature",
      "properties": {
        "@id": "node/3637073750",
        "addr:city": "Bologna",
        "addr:housenumber": "18c",
        "addr:postcode": "40126",
        "addr:street": "Via Irnerio",
        "name": "Antica Barberia",
        "shop": "hairdresser"
      },
      "geometry": {
        "type": "Point",
        "coordinates": [
          11.3498297,
          44.4999549
        ]
      },
      "id": "node/3637073750"
    },
    {
      "type": "Feature",
      "properties": {
        "@id": "node/4274713977",
        "name": "Onde su Onde",
        "shop": "hairdresser"
      },
      "geometry": {
        "type": "Point",
        "coordinates": [
          11.3622138,
          44.4928054
        ]
      },
      "id": "node/4274713977"
    },
    {
      "type": "Feature",
      "properties": {
        "@id": "node/4275173112",
        "shop": "hairdresser"
      },
      "geometry": {
        "type": "Point",
        "coordinates": [
          11.3600374,
          44.493328
        ]
      },
      "id": "node/4275173112"
    },
    {
      "type": "Feature",
      "properties": {
        "@id": "node/4275173113",
        "name": "Movi'n Hair",
        "shop": "hairdresser"
      },
      "geometry": {
        "type": "Point",
        "coordinates": [
          11.3597343,
          44.4934677
        ]
      },
      "id": "node/4275173113"
    },
    {
      "type": "Feature",
      "properties": {
        "@id": "node/4275185301",
        "name": "Nasrin",
        "shop": "hairdresser"
      },
      "geometry": {
        "type": "Point",
        "coordinates": [
          11.3541996,
          44.4941488
        ]
      },
      "id": "node/4275185301"
    },
    {
      "type": "Feature",
      "properties": {
        "@id": "node/4275204552",
        "addr:city": "Bologna",
        "addr:housenumber": "25a",
        "addr:postcode": "40125",
        "addr:street": "Via Broccaindosso",
        "name": "Riflessi Hair",
        "shop": "hairdresser"
      },
      "geometry": {
        "type": "Point",
        "coordinates": [
          11.3549721,
          44.4922901
        ]
      },
      "id": "node/4275204552"
    },
    {
      "type": "Feature",
      "properties": {
        "@id": "node/4280320887",
        "name": "Fatal Style",
        "shop": "hairdresser"
      },
      "geometry": {
        "type": "Point",
        "coordinates": [
          11.3582176,
          44.4896032
        ]
      },
      "id": "node/4280320887"
    },
    {
      "type": "Feature",
      "properties": {
        "@id": "node/4280334098",
        "name": "Riflessi di Donna",
        "shop": "hairdresser"
      },
      "geometry": {
        "type": "Point",
        "coordinates": [
          11.3598081,
          44.4889795
        ]
      },
      "id": "node/4280334098"
    },
    {
      "type": "Feature",
      "properties": {
        "@id": "node/4280334104",
        "name": "Aveda",
        "shop": "hairdresser"
      },
      "geometry": {
        "type": "Point",
        "coordinates": [
          11.3609829,
          44.4888187
        ]
      },
      "id": "node/4280334104"
    },
    {
      "type": "Feature",
      "properties": {
        "@id": "node/4280397748",
        "name": "Lorenzo",
        "shop": "hairdresser"
      },
      "geometry": {
        "type": "Point",
        "coordinates": [
          11.3614108,
          44.4863742
        ]
      },
      "id": "node/4280397748"
    },
    {
      "type": "Feature",
      "properties": {
        "@id": "node/4280397752",
        "shop": "hairdresser"
      },
      "geometry": {
        "type": "Point",
        "coordinates": [
          11.360248,
          44.4847707
        ]
      },
      "id": "node/4280397752"
    },
    {
      "type": "Feature",
      "properties": {
        "@id": "node/4280397754",
        "name": "L'Rose",
        "shop": "hairdresser"
      },
      "geometry": {
        "type": "Point",
        "coordinates": [
          11.3589096,
          44.4836292
        ]
      },
      "id": "node/4280397754"
    },
    {
      "type": "Feature",
      "properties": {
        "@id": "node/4280397759",
        "name": "Ivano",
        "shop": "hairdresser"
      },
      "geometry": {
        "type": "Point",
        "coordinates": [
          11.3584241,
          44.4833556
        ]
      },
      "id": "node/4280397759"
    },
    {
      "type": "Feature",
      "properties": {
        "@id": "node/4319222533",
        "name": "Angela",
        "shop": "hairdresser"
      },
      "geometry": {
        "type": "Point",
        "coordinates": [
          11.3522497,
          44.4878916
        ]
      },
      "id": "node/4319222533"
    },
    {
      "type": "Feature",
      "properties": {
        "@id": "node/4319231404",
        "name": "Emanuela",
        "shop": "hairdresser"
      },
      "geometry": {
        "type": "Point",
        "coordinates": [
          11.3549367,
          44.4856648
        ]
      },
      "id": "node/4319231404"
    },
    {
      "type": "Feature",
      "properties": {
        "@id": "node/4319441340",
        "name": "F.R. Equipe Parrucchieri",
        "shop": "hairdresser"
      },
      "geometry": {
        "type": "Point",
        "coordinates": [
          11.3556542,
          44.4851702
        ]
      },
      "id": "node/4319441340"
    },
    {
      "type": "Feature",
      "properties": {
        "@id": "node/4319442176",
        "name": "Murri 8",
        "shop": "hairdresser"
      },
      "geometry": {
        "type": "Point",
        "coordinates": [
          11.3579971,
          44.4837264
        ]
      },
      "id": "node/4319442176"
    },
    {
      "type": "Feature",
      "properties": {
        "@id": "node/4498549490",
        "addr:housenumber": "2/83",
        "addr:postcode": "40033",
        "addr:street": "Via Marilyn Monroe",
        "name": "Steve",
        "name:it": "Steve",
        "shop": "hairdresser"
      },
      "geometry": {
        "type": "Point",
        "coordinates": [
          11.2483689,
          44.4889787
        ]
      },
      "id": "node/4498549490"
    },
    {
      "type": "Feature",
      "properties": {
        "@id": "node/4523221600",
        "addr:country": "IT",
        "addr:street": "Viale Giuseppe Fanin",
        "name": "Grimaldi",
        "name:it": "Grimaldi",
        "shop": "hairdresser"
      },
      "geometry": {
        "type": "Point",
        "coordinates": [
          11.4003431,
          44.5148756
        ]
      },
      "id": "node/4523221600"
    },
    {
      "type": "Feature",
      "properties": {
        "@id": "node/4523300296",
        "name": "Crystal",
        "shop": "hairdresser"
      },
      "geometry": {
        "type": "Point",
        "coordinates": [
          11.3601564,
          44.5704158
        ]
      },
      "id": "node/4523300296"
    },
    {
      "type": "Feature",
      "properties": {
        "@id": "node/4523373090",
        "addr:postcode": "40013",
        "addr:street": "Via Pio La Torre",
        "name": "Steve",
        "name:it": "Steve",
        "opening_hours": "Mo-Sa 09:00-20:00; Su 10:00-20:00",
        "shop": "hairdresser"
      },
      "geometry": {
        "type": "Point",
        "coordinates": [
          11.358431,
          44.5687788
        ]
      },
      "id": "node/4523373090"
    },
    {
      "type": "Feature",
      "properties": {
        "@id": "node/4524803594",
        "name": "Jean Louis David",
        "name:it": "Jean Louis David",
        "shop": "hairdresser"
      },
      "geometry": {
        "type": "Point",
        "coordinates": [
          11.3919573,
          44.4977395
        ]
      },
      "id": "node/4524803594"
    },
    {
      "type": "Feature",
      "properties": {
        "@id": "node/4535724302",
        "name": "Jean Louis David",
        "name:it": "Jean Louis David",
        "shop": "hairdresser"
      },
      "geometry": {
        "type": "Point",
        "coordinates": [
          11.4214435,
          44.4909074
        ]
      },
      "id": "node/4535724302"
    },
    {
      "type": "Feature",
      "properties": {
        "@id": "node/4623257271",
        "addr:city": "Bologna",
        "addr:housenumber": "252/2",
        "addr:postcode": "40128",
        "addr:street": "Via di Corticella",
        "name": "Parrucchiera Roberta",
        "operator": "Zanarini Roberta",
        "phone": "+39 051 702500",
        "shop": "hairdresser"
      },
      "geometry": {
        "type": "Point",
        "coordinates": [
          11.3551556,
          44.5483898
        ]
      },
      "id": "node/4623257271"
    },
    {
      "type": "Feature",
      "properties": {
        "@id": "node/4688710891",
        "name": "Jun Feng Zheng Fa",
        "name:it": "Jun Feng Zheng Fa",
        "shop": "hairdresser"
      },
      "geometry": {
        "type": "Point",
        "coordinates": [
          11.3412804,
          44.5046814
        ]
      },
      "id": "node/4688710891"
    },
    {
      "type": "Feature",
      "properties": {
        "@id": "node/4695615190",
        "name": "Ming Shi",
        "shop": "hairdresser"
      },
      "geometry": {
        "type": "Point",
        "coordinates": [
          11.2719535,
          44.4742971
        ]
      },
      "id": "node/4695615190"
    },
    {
      "type": "Feature",
      "properties": {
        "@id": "node/4696753691",
        "name": "Claudio",
        "name:it": "Claudio",
        "shop": "hairdresser"
      },
      "geometry": {
        "type": "Point",
        "coordinates": [
          11.3028728,
          44.5077074
        ]
      },
      "id": "node/4696753691"
    },
    {
      "type": "Feature",
      "properties": {
        "@id": "node/4696966891",
        "name": "HA",
        "shop": "hairdresser"
      },
      "geometry": {
        "type": "Point",
        "coordinates": [
          11.3034602,
          44.5073556
        ]
      },
      "id": "node/4696966891"
    },
    {
      "type": "Feature",
      "properties": {
        "@id": "node/4696966892",
        "name": "Nuccia",
        "name:it": "Nuccia",
        "shop": "hairdresser"
      },
      "geometry": {
        "type": "Point",
        "coordinates": [
          11.3012835,
          44.507824
        ]
      },
      "id": "node/4696966892"
    },
    {
      "type": "Feature",
      "properties": {
        "@id": "node/4696976293",
        "name": "Ou Yi",
        "name:it": "Ou Yi",
        "shop": "hairdresser"
      },
      "geometry": {
        "type": "Point",
        "coordinates": [
          11.2799657,
          44.5158557
        ]
      },
      "id": "node/4696976293"
    },
    {
      "type": "Feature",
      "properties": {
        "@id": "node/4696999289",
        "name": "Lucia",
        "name:it": "Lucia",
        "shop": "hairdresser"
      },
      "geometry": {
        "type": "Point",
        "coordinates": [
          11.3132363,
          44.5040681
        ]
      },
      "id": "node/4696999289"
    },
    {
      "type": "Feature",
      "properties": {
        "@id": "node/4708260293",
        "addr:street": "Via Giovanni Amendola",
        "name": "Giulia",
        "name:it": "Giulia",
        "shop": "hairdresser"
      },
      "geometry": {
        "type": "Point",
        "coordinates": [
          11.3401482,
          44.5029607
        ]
      },
      "id": "node/4708260293"
    },
    {
      "type": "Feature",
      "properties": {
        "@id": "node/4708352691",
        "name": "Sax",
        "name:it": "Sax",
        "shop": "hairdresser"
      },
      "geometry": {
        "type": "Point",
        "coordinates": [
          11.3472951,
          44.498248
        ]
      },
      "id": "node/4708352691"
    },
    {
      "type": "Feature",
      "properties": {
        "@id": "node/4708391493",
        "addr:city": "Bologna",
        "addr:housenumber": "19a",
        "addr:postcode": "40126",
        "addr:street": "Via Mascarella",
        "name": "Il Bello delle Donne",
        "shop": "hairdresser"
      },
      "geometry": {
        "type": "Point",
        "coordinates": [
          11.3496431,
          44.4987779
        ]
      },
      "id": "node/4708391493"
    },
    {
      "type": "Feature",
      "properties": {
        "@id": "node/4807308435",
        "name": "Vittorio",
        "name:it": "Vittorio",
        "shop": "hairdresser"
      },
      "geometry": {
        "type": "Point",
        "coordinates": [
          11.3419864,
          44.4927508
        ]
      },
      "id": "node/4807308435"
    },
    {
      "type": "Feature",
      "properties": {
        "@id": "node/4807315221",
        "name": "Monica",
        "name:it": "Monica",
        "shop": "hairdresser"
      },
      "geometry": {
        "type": "Point",
        "coordinates": [
          11.3421889,
          44.4920897
        ]
      },
      "id": "node/4807315221"
    },
    {
      "type": "Feature",
      "properties": {
        "@id": "node/4810244821",
        "shop": "hairdresser"
      },
      "geometry": {
        "type": "Point",
        "coordinates": [
          11.5362822,
          44.5384143
        ]
      },
      "id": "node/4810244821"
    },
    {
      "type": "Feature",
      "properties": {
        "@id": "node/4891849761",
        "addr:city": "Bologna",
        "addr:housenumber": "31a",
        "addr:street": "Via delle Lame",
        "name": "I Brunelleschi",
        "opening_hours": "Tu-Fr 09:30-18:30, Sa 08:30-18:00, We 11:00-21:00",
        "shop": "hairdresser"
      },
      "geometry": {
        "type": "Point",
        "coordinates": [
          11.3365454,
          44.497499
        ]
      },
      "id": "node/4891849761"
    },
    {
      "type": "Feature",
      "properties": {
        "@id": "node/4891849762",
        "addr:city": "Bologna",
        "addr:housenumber": "31d",
        "addr:street": "Via delle Lame",
        "male": "yes",
        "opening_hours": "08:30-12:30,15:30-19:00; Mo,Su off",
        "shop": "hairdresser"
      },
      "geometry": {
        "type": "Point",
        "coordinates": [
          11.3364772,
          44.4975952
        ]
      },
      "id": "node/4891849762"
    },
    {
      "type": "Feature",
      "properties": {
        "@id": "node/5078406421",
        "shop": "hairdresser"
      },
      "geometry": {
        "type": "Point",
        "coordinates": [
          11.2815712,
          44.515295
        ]
      },
      "id": "node/5078406421"
    },
    {
      "type": "Feature",
      "properties": {
        "@id": "node/5078406424",
        "name": "L'atelier della Bellezza",
        "name:it": "L'atelier della Bellezza",
        "shop": "hairdresser"
      },
      "geometry": {
        "type": "Point",
        "coordinates": [
          11.3083944,
          44.5060412
        ]
      },
      "id": "node/5078406424"
    },
    {
      "type": "Feature",
      "properties": {
        "@id": "node/5102529725",
        "name": "Cristina",
        "shop": "hairdresser"
      },
      "geometry": {
        "type": "Point",
        "coordinates": [
          11.3572336,
          44.5071771
        ]
      },
      "id": "node/5102529725"
    },
    {
      "type": "Feature",
      "properties": {
        "@id": "node/5109392721",
        "name": "I Garulli",
        "shop": "hairdresser"
      },
      "geometry": {
        "type": "Point",
        "coordinates": [
          11.2771978,
          44.4740595
        ]
      },
      "id": "node/5109392721"
    },
    {
      "type": "Feature",
      "properties": {
        "@id": "node/5190422052",
        "addr:city": "Bologna",
        "addr:housenumber": "17a",
        "addr:postcode": "40131",
        "addr:street": "Vittorio Veneto",
        "name": "Lucas Parrucchiere",
        "shop": "hairdresser"
      },
      "geometry": {
        "type": "Point",
        "coordinates": [
          11.3202294,
          44.4992481
        ]
      },
      "id": "node/5190422052"
    },
    {
      "type": "Feature",
      "properties": {
        "@id": "node/5190422054",
        "addr:city": "Bologna",
        "addr:housenumber": "15/a",
        "addr:postcode": "40131",
        "addr:street": "Vittorio Veneto",
        "name": "Morena e Simona",
        "shop": "hairdresser"
      },
      "geometry": {
        "type": "Point",
        "coordinates": [
          11.3203004,
          44.4993522
        ]
      },
      "id": "node/5190422054"
    },
    {
      "type": "Feature",
      "properties": {
        "@id": "node/5226760628",
        "name": "Bio Natural Therapy",
        "shop": "hairdresser"
      },
      "geometry": {
        "type": "Point",
        "coordinates": [
          11.3564618,
          44.4904309
        ]
      },
      "id": "node/5226760628"
    },
    {
      "type": "Feature",
      "properties": {
        "@id": "node/5391053221",
        "name": "Hair de Lux",
        "name:it": "Hair de Lux",
        "shop": "hairdresser"
      },
      "geometry": {
        "type": "Point",
        "coordinates": [
          11.2398672,
          44.4846289
        ]
      },
      "id": "node/5391053221"
    },
    {
      "type": "Feature",
      "properties": {
        "@id": "node/5493297269",
        "addr:city": "Bologna",
        "addr:housenumber": "62b",
        "addr:postcode": "40125",
        "addr:street": "Strada Maggiore",
        "name": "Max Marino",
        "shop": "hairdresser"
      },
      "geometry": {
        "type": "Point",
        "coordinates": [
          11.3538549,
          44.4914085
        ]
      },
      "id": "node/5493297269"
    },
    {
      "type": "Feature",
      "properties": {
        "@id": "node/5569022886",
        "name": "Enjoy",
        "shop": "hairdresser"
      },
      "geometry": {
        "type": "Point",
        "coordinates": [
          11.3706254,
          44.4714423
        ]
      },
      "id": "node/5569022886"
    },
    {
      "type": "Feature",
      "properties": {
        "@id": "node/5569386003",
        "name": "Vegan Hair",
        "shop": "hairdresser"
      },
      "geometry": {
        "type": "Point",
        "coordinates": [
          11.3701995,
          44.4714716
        ]
      },
      "id": "node/5569386003"
    },
    {
      "type": "Feature",
      "properties": {
        "@id": "node/5587728523",
        "name": "Sunline",
        "shop": "hairdresser"
      },
      "geometry": {
        "type": "Point",
        "coordinates": [
          11.2772074,
          44.4770209
        ]
      },
      "id": "node/5587728523"
    },
    {
      "type": "Feature",
      "properties": {
        "@id": "node/5598937321",
        "female": "yes",
        "name": "Rosy Hair Stylist",
        "shop": "hairdresser",
        "wheelchair": "no"
      },
      "geometry": {
        "type": "Point",
        "coordinates": [
          11.3695256,
          44.4729624
        ]
      },
      "id": "node/5598937321"
    },
    {
      "type": "Feature",
      "properties": {
        "@id": "node/5604629096",
        "shop": "hairdresser"
      },
      "geometry": {
        "type": "Point",
        "coordinates": [
          11.3729878,
          44.4661569
        ]
      },
      "id": "node/5604629096"
    },
    {
      "type": "Feature",
      "properties": {
        "@id": "node/5604679514",
        "name": "Il bello delle donne",
        "shop": "hairdresser"
      },
      "geometry": {
        "type": "Point",
        "coordinates": [
          11.377898,
          44.4670608
        ]
      },
      "id": "node/5604679514"
    },
    {
      "type": "Feature",
      "properties": {
        "@id": "node/5604679518",
        "male": "yes",
        "name": "Francesco Acconciature",
        "shop": "hairdresser"
      },
      "geometry": {
        "type": "Point",
        "coordinates": [
          11.3771774,
          44.4676337
        ]
      },
      "id": "node/5604679518"
    },
    {
      "type": "Feature",
      "properties": {
        "@id": "node/5604693917",
        "female": "yes",
        "name": "Parrucchiere Stefano",
        "shop": "hairdresser"
      },
      "geometry": {
        "type": "Point",
        "coordinates": [
          11.3769275,
          44.4681307
        ]
      },
      "id": "node/5604693917"
    },
    {
      "type": "Feature",
      "properties": {
        "@id": "node/5604874729",
        "shop": "hairdresser"
      },
      "geometry": {
        "type": "Point",
        "coordinates": [
          11.3705458,
          44.4715603
        ]
      },
      "id": "node/5604874729"
    },
    {
      "type": "Feature",
      "properties": {
        "@id": "node/5604874730",
        "name": "Ni Hao",
        "shop": "hairdresser"
      },
      "geometry": {
        "type": "Point",
        "coordinates": [
          11.3704894,
          44.4716253
        ]
      },
      "id": "node/5604874730"
    },
    {
      "type": "Feature",
      "properties": {
        "@id": "node/5628783964",
        "male": "yes",
        "name": "Paolo il barbiere",
        "shop": "hairdresser",
        "wheelchair": "limited"
      },
      "geometry": {
        "type": "Point",
        "coordinates": [
          11.3711758,
          44.4642847
        ]
      },
      "id": "node/5628783964"
    },
    {
      "type": "Feature",
      "properties": {
        "@id": "node/5656064799",
        "addr:city": "Bologna",
        "addr:housenumber": "150",
        "addr:postcode": "40137",
        "addr:street": "Via Augusto Murri",
        "male": "only",
        "name": "Barbiere Cisco",
        "operator": "Cariati Salvatore",
        "payment:cash": "yes",
        "phone": "+39 051 623 1624",
        "shop": "hairdresser"
      },
      "geometry": {
        "type": "Point",
        "coordinates": [
          11.3679771,
          44.4749824
        ]
      },
      "id": "node/5656064799"
    },
    {
      "type": "Feature",
      "properties": {
        "@id": "node/5942665934",
        "name": "DAVD",
        "opening_hours": "Mo-Sa 09:00-19:00",
        "shop": "hairdresser"
      },
      "geometry": {
        "type": "Point",
        "coordinates": [
          11.365461,
          44.487082
        ]
      },
      "id": "node/5942665934"
    },
    {
      "type": "Feature",
      "properties": {
        "@id": "node/5948387340",
        "name": "b-side",
        "shop": "hairdresser"
      },
      "geometry": {
        "type": "Point",
        "coordinates": [
          11.3693064,
          44.4817775
        ]
      },
      "id": "node/5948387340"
    },
    {
      "type": "Feature",
      "properties": {
        "@id": "node/5968343192",
        "name": "Zeffiro",
        "shop": "hairdresser"
      },
      "geometry": {
        "type": "Point",
        "coordinates": [
          11.3414256,
          44.4956972
        ]
      },
      "id": "node/5968343192"
    },
    {
      "type": "Feature",
      "properties": {
        "@id": "node/6033744972",
        "name": "Gino",
        "opening_hours": "Mo-Sa 08:00-12:30, 15:30-19:30",
        "shop": "hairdresser"
      },
      "geometry": {
        "type": "Point",
        "coordinates": [
          11.347912,
          44.4922905
        ]
      },
      "id": "node/6033744972"
    },
    {
      "type": "Feature",
      "properties": {
        "@id": "node/6288649818",
        "name": "Studio Maria Grazia",
        "shop": "hairdresser"
      },
      "geometry": {
        "type": "Point",
        "coordinates": [
          11.3692329,
          44.4834342
        ]
      },
      "id": "node/6288649818"
    },
    {
      "type": "Feature",
      "properties": {
        "@id": "node/6288779602",
        "name": "Parruchieri M.G.",
        "shop": "hairdresser"
      },
      "geometry": {
        "type": "Point",
        "coordinates": [
          11.3724592,
          44.4839839
        ]
      },
      "id": "node/6288779602"
    },
    {
      "type": "Feature",
      "properties": {
        "@id": "node/6749801626",
        "addr:city": "Casalecchio di Reno",
        "addr:housenumber": "385",
        "addr:postcode": "40033",
        "addr:street": "Via Porrettana",
        "name": "WHITE Parrucchieri",
        "shop": "hairdresser"
      },
      "geometry": {
        "type": "Point",
        "coordinates": [
          11.2706881,
          44.4680793
        ]
      },
      "id": "node/6749801626"
    },
    {
      "type": "Feature",
      "properties": {
        "@id": "node/6832257192",
        "shop": "hairdresser"
      },
      "geometry": {
        "type": "Point",
        "coordinates": [
          11.3041276,
          44.4912013
        ]
      },
      "id": "node/6832257192"
    },
    {
      "type": "Feature",
      "properties": {
        "@id": "node/6839846018",
        "name": "Lisa Parruchieri",
        "opening_hours": "Mo-Su 09:00-20:00",
        "shop": "hairdresser"
      },
      "geometry": {
        "type": "Point",
        "coordinates": [
          11.3503283,
          44.494389
        ]
      },
      "id": "node/6839846018"
    },
    {
      "type": "Feature",
      "properties": {
        "@id": "node/6897674984",
        "shop": "hairdresser"
      },
      "geometry": {
        "type": "Point",
        "coordinates": [
          11.2666629,
          44.4794564
        ]
      },
      "id": "node/6897674984"
    }
  ]
}